IRIDIUM 126             
1 42809U 17039G   25342.68058755  .00000501  00000+0  17167-3 0  9993
2 42809  86.3970  73.2827 0001844  97.1988 262.9418 14.34216001442640
IRIDIUM 124             
1 42810U 17039H   25342.80857060  .00000910  00000+0  26439-3 0  9991
2 42810  86.4493   9.9514 0002176  98.0741 262.0707 14.43288243447653
IRIDIUM 128             
1 42811U 17039J   25342.88063300  .00000406  00000+0  13783-3 0  9994
2 42811  86.3962 104.7326 0002296 101.6628 258.4826 14.34215318442702
IRIDIUM 121             
1 42812U 17039K   25342.76938720  .00000341  00000+0  11462-3 0  9999
2 42812  86.3969  73.2719 0002190  96.1096 264.0349 14.34217777442531
IRIDIUM 133             
1 42955U 17061A   25342.84258237  .00000425  00000+0  14474-3 0  9998
2 42955  86.3966 104.8619 0002025  97.9055 262.2370 14.34212704427494
IRIDIUM 100             
1 42956U 17061B   25342.83622543  .00000621  00000+0  21452-3 0  9995
2 42956  86.3962 104.7873 0001962  97.9477 262.1942 14.34222360427492
IRIDIUM 122             
1 42957U 17061C   25342.87429067 -.00000025  00000+0 -15932-4 0  9993
2 42957  86.3963 104.7712 0001801  97.0585 263.0816 14.34217054427505
IRIDIUM 129             
1 42958U 17061D   25342.89965873  .00000429  00000+0  14622-3 0  9996
2 42958  86.3962 104.8253 0001870  84.1577 275.9832 14.34214761427524
